{"type": "FeatureCollection", "features": [ {"type": "Feature", "properties": {"norad_id": 34409, "name": "COSMOS 2251 DEB", "group": "cosmos-2251-debris", "lat": 38.87670062123671, "lon": 86.47980065080309, "alt_km": 744.715034272389, "timestamp": "2025-12-26T23:26:42.518047+00:00", "meta": {"OBJECT_NAME": "COSMOS 2251 DEB", "OBJECT_ID": "1993-036RA", "EPOCH": "2025-12-26T13:43:20.964288", "MEAN_MOTION": 14.58060964, "ECCENTRICITY": 0.0080461, "INCLINATION": 74.0637, "RA_OF_ASC_NODE": 280.5674, "ARG_OF_PERICENTER": 351.315, "MEAN_ANOMALY": 181.8118, "EPHEMERIS_TYPE": 0, "CLASSIFICATION_TYPE": "U", "NORAD_CAT_ID": 34409, "ELEMENT_SET_NO": 999, "REV_AT_EPOCH": 89394, "BSTAR": 0.00027355, "MEAN_MOTION_DOT": 1.284e-05, "MEAN_MOTION_DDOT": 0}, "tle": {"line1": "1 34409U 93036RA  25360.57177042  .00001284  00000+0  27355-3 0  9999", "line2": "2 34409  74.0637 280.5674 0080461 351.3150 181.8118 14.58060964893942"}}, "geometry": {"type": "Point", "coordinates": [86.47980065080309, 38.87670062123671]}}, {"type": "Feature", "properties": {"norad_id": 34410, "name": "COSMOS 2251 DEB", "group": "cosmos-2251-debris", "lat": 73.6813039429662, "lon": -42.93974397825941, "alt_km": 483.8518046131285, "timestamp": "2025-12-26T23:26:42.518056+00:00", "meta": {"OBJECT_NAME": "COSMOS 2251 DEB", "OBJECT_ID": "1993-036RB", "EPOCH": "2025-12-26T15:17:57.460704", "MEAN_MOTION": 15.20204778, "ECCENTRICITY": 0.0021247, "INCLINATION": 73.7358, "RA_OF_ASC_NODE": 232.0969, "ARG_OF_PERICENTER": 70.7601, "MEAN_ANOMALY": 321.2169, "EPHEMERIS_TYPE": 0, "CLASSIFICATION_TYPE": "U", "NORAD_CAT_ID": 34410, "ELEMENT_SET_NO": 999, "REV_AT_EPOCH": 89985, "BSTAR": 0.0022532, "MEAN_MOTION_DOT": 0.00049424, "MEAN_MOTION_DDOT": 0}, "tle": {"line1": "1 34410U 93036RB  25360.63747061  .00049424  00000+0  22532-2 0  9991", "line2": "2 34410  73.7358 232.0969 0021247  70.7601 321.2169 15.20204778899854"}}, "geometry": {"type": "Point", "coordinates": [-42.93974397825941, 73.6813039429662]}}, {"type": "Feature", "properties": {"norad_id": 34412, "name": "COSMOS 2251 DEB", "group": "cosmos-2251-debris", "lat": 22.75502472696051, "lon": 110.89699215746893, "alt_km": 811.5057906529191, "timestamp": "2025-12-26T23:26:42.518065+00:00", "meta": {"OBJECT_NAME": "COSMOS 2251 DEB", "OBJECT_ID": "1993-036RD", "EPOCH": "2025-12-26T06:09:00.171072", "MEAN_MOTION": 14.47312096, "ECCENTRICITY": 0.0187713, "INCLINATION": 73.9486, "RA_OF_ASC_NODE": 299.1878, "ARG_OF_PERICENTER": 31.1517, "MEAN_ANOMALY": 330.0606, "EPHEMERIS_TYPE": 0, "CLASSIFICATION_TYPE": "U", "NORAD_CAT_ID": 34412, "ELEMENT_SET_NO": 999, "REV_AT_EPOCH": 87846, "BSTAR": 0.0018062, "MEAN_MOTION_DOT": 8.23e-05, "MEAN_MOTION_DDOT": 0}, "tle": {"line1": "1 34412U 93036RD  25360.25625198  .00008230  00000+0  18062-2 0  9990", "line2": "2 34412  73.9486 299.1878 0187713  31.1517 330.0606 14.47312096878460"}}, "geometry": {"type": "Point", "coordinates": [110.89699215746893, 22.75502472696051]}}, {"type": "Feature", "properties": {"norad_id": 34413, "name": "COSMOS 2251 DEB", "group": "cosmos-2251-debris", "lat": 72.0031695377361, "lon": -59.15952826590179, "alt_km": 827.6047882152989, "timestamp": "2025-12-26T23:26:42.518075+00:00", "meta": {"OBJECT_NAME": "COSMOS 2251 DEB", "OBJECT_ID": "1993-036RE", "EPOCH": "2025-12-26T16:29:13.955712", "MEAN_MOTION": 14.29199026, "ECCENTRICITY": 0.009094, "INCLINATION": 74.0304, "RA_OF_ASC_NODE": 239.5459, "ARG_OF_PERICENTER": 313.4526, "MEAN_ANOMALY": 76.311, "EPHEMERIS_TYPE": 0, "CLASSIFICATION_TYPE": "U", "NORAD_CAT_ID": 34413, "ELEMENT_SET_NO": 999, "REV_AT_EPOCH": 87330, "BSTAR": 0.001248, "MEAN_MOTION_DOT": 3.289e-05, "MEAN_MOTION_DDOT": 0}, "tle": {"line1": "1 34413U 93036RE  25360.68696708  .00003289  00000+0  12480-2 0  9990", "line2": "2 34413  74.0304 239.5459 0090940 313.4526  76.3110 14.29199026873300"}}, "geometry": {"type": "Point", "coordinates": [-59.15952826590179, 72.0031695377361]}}, {"type": "Feature", "properties": {"norad_id": 34420, "name": "COSMOS 2251 DEB", "group": "cosmos-2251-debris", "lat": 18.3112043810278, "lon": 81.85757682681886, "alt_km": 740.7364389184368, "timestamp": "2025-12-26T23:26:42.518084+00:00", "meta": {"OBJECT_NAME": "COSMOS 2251 DEB", "OBJECT_ID": "1993-036RM", "EPOCH": "2025-12-26T15:52:05.994336", "MEAN_MOTION": 14.68337782, "ECCENTRICITY": 0.0105967, "INCLINATION": 74.0332, "RA_OF_ASC_NODE": 77.0311, "ARG_OF_PERICENTER": 194.8501, "MEAN_ANOMALY": 316.3312, "EPHEMERIS_TYPE": 0, "CLASSIFICATION_TYPE": "U", "NORAD_CAT_ID": 34420, "ELEMENT_SET_NO": 999, "REV_AT_EPOCH": 89974, "BSTAR": 0.00022896, "MEAN_MOTION_DOT": 1.404e-05, "MEAN_MOTION_DDOT": 0}, "tle": {"line1": "1 34420U 93036RM  25360.66118049  .00001404  00000+0  22896-3 0  9993", "line2": "2 34420  74.0332  77.0311 0105967 194.8501 316.3312 14.68337782899744"}}, "geometry": {"type": "Point", "coordinates": [81.85757682681886, 18.3112043810278]}}, {"type": "Feature", "properties": {"norad_id": 34425, "name": "COSMOS 2251 DEB", "group": "cosmos-2251-debris", "lat": 27.00835653824844, "lon": -161.17295885637907, "alt_km": 667.6966501222587, "timestamp": "2025-12-26T23:26:42.518093+00:00", "meta": {"OBJECT_NAME": "COSMOS 2251 DEB", "OBJECT_ID": "1993-036RS", "EPOCH": "2025-12-26T11:15:36.344160", "MEAN_MOTION": 14.62199982, "ECCENTRICITY": 0.0024045, "INCLINATION": 74.0192, "RA_OF_ASC_NODE": 28.199, "ARG_OF_PERICENTER": 150.6925, "MEAN_ANOMALY": 209.5597, "EPHEMERIS_TYPE": 0, "CLASSIFICATION_TYPE": "U", "NORAD_CAT_ID": 34425, "ELEMENT_SET_NO": 999, "REV_AT_EPOCH": 88941, "BSTAR": 0.00053248, "MEAN_MOTION_DOT": 2.663e-05, "MEAN_MOTION_DDOT": 0}, "tle": {"line1": "1 34425U 93036RS  25360.46917065  .00002663  00000+0  53248-3 0  9994", "line2": "2 34425  74.0192  28.1990 0024045 150.6925 209.5597 14.62199982889413"}}, "geometry": {"type": "Point", "coordinates": [-161.17295885637907, 27.00835653824844]}}, {"type": "Feature", "properties": {"norad_id": 34429, "name": "COSMOS 2251 DEB", "group": "cosmos-2251-debris", "lat": 64.33382969550483, "lon": -79.84842964757652, "alt_km": 421.4289033656796, "timestamp": "2025-12-26T23:26:42.518103+00:00", "meta": {"OBJECT_NAME": "COSMOS 2251 DEB", "OBJECT_ID": "1993-036RW", "EPOCH": "2025-12-26T10:48:12.272256", "MEAN_MOTION": 15.47930745, "ECCENTRICITY": 0.0014469, "INCLINATION": 73.9685, "RA_OF_ASC_NODE": 138.062, "ARG_OF_PERICENTER": 342.8367, "MEAN_ANOMALY": 73.0284, "EPHEMERIS_TYPE": 0, "CLASSIFICATION_TYPE": "U", "NORAD_CAT_ID": 34429, "ELEMENT_SET_NO": 999, "REV_AT_EPOCH": 89660, "BSTAR": 0.0055636, "MEAN_MOTION_DOT": 0.00302726, "MEAN_MOTION_DDOT": 0}, "tle": {"line1": "1 34429U 93036RW  25360.45014204  .00302726  00000+0  55636-2 0  9995", "line2": "2 34429  73.9685 138.0620 0014469 342.8367  73.0284 15.47930745896607"}}, "geometry": {"type": "Point", "coordinates": [-79.84842964757652, 64.33382969550483]}}, {"type": "Feature", "properties": {"norad_id": 34430, "name": "COSMOS 2251 DEB", "group": "cosmos-2251-debris", "lat": -38.0496795956602, "lon": 110.02692122159294, "alt_km": 789.5700850638996, "timestamp": "2025-12-26T23:26:42.518112+00:00", "meta": {"OBJECT_NAME": "COSMOS 2251 DEB", "OBJECT_ID": "1993-036RX", "EPOCH": "2025-12-26T10:44:59.875008", "MEAN_MOTION": 14.39672774, "ECCENTRICITY": 0.0060947, "INCLINATION": 74.0518, "RA_OF_ASC_NODE": 278.0696, "ARG_OF_PERICENTER": 344.5522, "MEAN_ANOMALY": 15.377, "EPHEMERIS_TYPE": 0, "CLASSIFICATION_TYPE": "U", "NORAD_CAT_ID": 34430, "ELEMENT_SET_NO": 999, "REV_AT_EPOCH": 88152, "BSTAR": 0.00046702, "MEAN_MOTION_DOT": 1.467e-05, "MEAN_MOTION_DDOT": 0}, "tle": {"line1": "1 34430U 93036RX  25360.44791522  .00001467  00000+0  46702-3 0  9994", "line2": "2 34430  74.0518 278.0696 0060947 344.5522  15.3770 14.39672774881527"}}, "geometry": {"type": "Point", "coordinates": [110.02692122159294, -38.0496795956602]}}, {"type": "Feature", "properties": {"norad_id": 34431, "name": "COSMOS 2251 DEB", "group": "cosmos-2251-debris", "lat": -67.19386979149456, "lon": 106.65978263534552, "alt_km": 846.5855443055525, "timestamp": "2025-12-26T23:26:42.518121+00:00", "meta": {"OBJECT_NAME": "COSMOS 2251 DEB", "OBJECT_ID": "1993-036RY", "EPOCH": "2025-12-25T20:54:23.497920", "MEAN_MOTION": 14.2881916, "ECCENTRICITY": 0.0067658, "INCLINATION": 74.0741, "RA_OF_ASC_NODE": 151.4299, "ARG_OF_PERICENTER": 133.6134, "MEAN_ANOMALY": 227.0657, "EPHEMERIS_TYPE": 0, "CLASSIFICATION_TYPE": "U", "NORAD_CAT_ID": 34431, "ELEMENT_SET_NO": 999, "REV_AT_EPOCH": 87330, "BSTAR": 0.00072363, "MEAN_MOTION_DOT": 1.845e-05, "MEAN_MOTION_DDOT": 0}, "tle": {"line1": "1 34431U 93036RY  25359.87110530  .00001845  00000+0  72363-3 0  9996", "line2": "2 34431  74.0741 151.4299 0067658 133.6134 227.0657 14.28819160873304"}}, "geometry": {"type": "Point", "coordinates": [106.65978263534552, -67.19386979149456]}}, {"type": "Feature", "properties": {"norad_id": 34432, "name": "COSMOS 2251 DEB", "group": "cosmos-2251-debris", "lat": 44.0791872581696, "lon": 93.56016441929506, "alt_km": 924.8805495975612, "timestamp": "2025-12-26T23:26:42.518131+00:00", "meta": {"OBJECT_NAME": "COSMOS 2251 DEB", "OBJECT_ID": "1993-036RZ", "EPOCH": "2025-12-26T15:14:50.828928", "MEAN_MOTION": 14.02963413, "ECCENTRICITY": 0.0181171, "INCLINATION": 73.8285, "RA_OF_ASC_NODE": 77.8425, "ARG_OF_PERICENTER": 158.3242, "MEAN_ANOMALY": 325.6108, "EPHEMERIS_TYPE": 0, "CLASSIFICATION_TYPE": "U", "NORAD_CAT_ID": 34432, "ELEMENT_SET_NO": 999, "REV_AT_EPOCH": 85879, "BSTAR": 0.0011584, "MEAN_MOTION_DOT": 2.053e-05, "MEAN_MOTION_DDOT": 0}, "tle": {"line1": "1 34432U 93036RZ  25360.63531052  .00002053  00000+0  11584-2 0  9998", "line2": "2 34432  73.8285  77.8425 0181171 158.3242 325.6108 14.02963413858793"}}, "geometry": {"type": "Point", "coordinates": [93.56016441929506, 44.0791872581696]}}]}